STARLINK-37508          
1 69257U 26117V   26166.94523889  .00266995  00000+0  13096-2 0  9992
2 69257  53.1578 249.4209 0002214  66.3119 293.8136 15.80960274  2786
STARLINK-37276          
1 69258U 26117W   26166.91668981 -.00024013  00000+0 -11843-3 0  9997
2 69258  53.1576 249.2449 0001263  66.6753 284.3886 15.80877324  3960
STARLINK-37518          
1 69259U 26117X   26166.91668981  .00060946  00000+0  31165-3 0  9990
2 69259  53.1574 249.2603 0001223  98.6442 245.3778 15.80767205  3971
STARLINK-37478          
1 69260U 26117Y   26166.91668981  .00006845  00000+0  38195-4 0  9991
2 69260  53.1577 249.2628 0000931  82.8114 259.9585 15.80869868  3974
STARLINK-37506          
1 69261U 26117Z   26166.91668981  .00056822  00000+0  28985-3 0  9997
2 69261  53.1574 249.2563 0000958  98.3295 247.2303 15.80849477  3973
STARLINK-37503          
1 69262U 26117AA  26166.91668981 -.00009339  00000+0 -43832-4 0  9990
2 69262  53.1578 249.2529 0001071  85.2518 261.7729 15.80870865  3978
STARLINK-37502          
1 69263U 26117AB  26166.91668981  .00027467  00000+0  14236-3 0  9996
2 69263  53.1578 249.2464 0001311  65.9514 284.0011 15.80857888  3977
STARLINK-37486          
1 69264U 26117AC  26166.91668981  .00046509  00000+0  23817-3 0  9990
2 69264  53.1574 249.2322 0001062 100.4457 256.4526 15.80848881  3978
STARLINK-37435          
1 69265U 26117AD  26166.66586702  .00141994  00000+0  70951-3 0  9998
2 69265  53.1575 250.5053 0000850 105.1426 254.9691 15.80924205  2743
STARLINK-37464          
1 69266U 26117AE  26166.72566073  .00136361  00000+0  64746-3 0  9992
2 69266  53.1572 250.1647 0000845  94.9208 265.1912 15.82045900  2752
KUIPER-00282            
1 69267U 26118A   26166.91947774 -.00015637  00000+0 -44933-3 0  9996
2 69267  51.8589  59.6718 0011627 177.2667 182.8384 15.34508490  3788
KUIPER-00383            
1 69268U 26118B   26166.98167061  .00005174  00000+0  16335-3 0  9995
2 69268  51.8593  59.3405 0010801 180.1544 179.9440 15.34517908  3799
KUIPER-00527            
1 69269U 26118C   26166.97735788  .00007958  00000+0  24162-3 0  9991
2 69269  51.8621  59.3145 0009930 173.1205 186.9919 15.34973047  3799
KUIPER-00562            
1 69270U 26118D   26166.94718646  .00020310  00000+0  53319-3 0  9997
2 69270  51.8734  59.1191 0001737 110.2924 249.8251 15.38607306  3796
KUIPER-00570            
1 69271U 26118E   26166.97948868 -.00035188  00000+0 -10228-2 0  9994
2 69271  51.8579  59.3241 0011979 180.2273 179.8709 15.34660447  3796
KUIPER-00572            
1 69272U 26118F   26166.96515660  .00018820  00000+0  52111-3 0  9994
2 69272  51.8686  59.2406 0007146 166.5656 193.5522 15.36990778  3792
KUIPER-00581            
1 69273U 26118G   26166.96879849  .00017719  00000+0  49701-3 0  9994
2 69273  51.8665  59.2631 0008802 170.6179 189.4974 15.36619999  3884
KUIPER-00584            
1 69274U 26118H   26166.98166538  .00005075  00000+0  16012-3 0  9992
2 69274  51.8607  59.3419 0011683 185.8092 174.2760 15.34571112  3796
KUIPER-00587            
1 69275U 26118J   26166.96818792  .00017259  00000+0  48379-3 0  9995
2 69275  51.8638  59.2568 0008113 174.0061 186.1024 15.36665722  3793
KUIPER-00590            
1 69276U 26118K   26166.95535082  .00019514  00000+0  52461-3 0  9996
2 69276  51.8699  59.1778 0003994 153.7540 206.3650 15.37896910  3797
KUIPER-00592            
1 69277U 26118L   26166.95297360  .00017433  00000+0  46724-3 0  9994
2 69277  51.8722  59.1621 0003539 129.2075 230.9227 15.38073840  3791
KUIPER-00593            
1 69278U 26118M   26166.95365714  .00018992  00000+0  50868-3 0  9999
2 69278  51.8724  59.1647 0003847 150.8412 209.2791 15.38031231  3859
KUIPER-00594            
1 69279U 26118N   26166.94604567  .00019354  00000+0  50809-3 0  9999
2 69279  51.8730  59.1152 0000956  80.1294 279.9802 15.38641356  3794
KUIPER-00595            
1 69280U 26118P   26166.94815140  .00020019  00000+0  52684-3 0  9995
2 69280  51.8719  59.1300 0001727 135.2905 224.8222 15.38542313  3828
KUIPER-00596            
1 69281U 26118Q   26166.98026971  .00006730  00000+0  20789-3 0  9991
2 69281  51.8558  59.3273 0012544 180.7539 179.3429 15.34676705  3796
KUIPER-00597            
1 69282U 26118R   26166.96350191  .00022072  00000+0  60877-3 0  9993
2 69282  51.8665  59.2304 0006845 167.4407 192.6751 15.37007345  3790
KUIPER-00599            
1 69283U 26118S   26166.96087551  .00018023  00000+0  49358-3 0  9993
2 69283  51.8703  59.2130 0006123 159.6144 200.5088 15.37369846  3790
KUIPER-00600            
1 69284U 26118T   26166.96748469  .00021005  00000+0  58519-3 0  9999
2 69284  51.8651  59.2545 0008667 169.8516 190.2647 15.36713365  3798
KUIPER-00601            
1 69285U 26118U   26166.95764550  .00018665  00000+0  50646-3 0  9999
2 69285  51.8712  59.1913 0004690 149.5298 210.5962 15.37639093  3791
KUIPER-00602            
1 69286U 26118V   26166.95218170  .00019858  00000+0  52909-3 0  9991
2 69286  51.8713  59.1576 0002717 139.0563 221.0628 15.38164846  3791
