OBJECT_NAME,OBJECT_ID,EPOCH,MEAN_MOTION,ECCENTRICITY,INCLINATION,RA_OF_ASC_NODE,ARG_OF_PERICENTER,MEAN_ANOMALY,EPHEMERIS_TYPE,CLASSIFICATION_TYPE,NORAD_CAT_ID,ELEMENT_SET_NO,REV_AT_EPOCH,BSTAR,MEAN_MOTION_DOT,MEAN_MOTION_DDOT
STARLINK-37508,2026-117V,2026-06-15T22:41:08.640096,15.80960274,.0002214,53.1578,249.4209,66.3119,293.8136,0,U,69257,999,278,.13095701E-2,.266995E-2,0
STARLINK-37276,2026-117W,2026-06-15T22:00:01.999584,15.80877324,.00012638,53.1576,249.2449,66.6753,284.3886,0,U,69258,999,396,-.11842703E-3,-.24013E-3,0
STARLINK-37518,2026-117X,2026-06-15T22:00:01.999584,15.80767205,.00012235,53.1574,249.2603,98.6442,245.3778,0,U,69259,999,397,.31165019E-3,.60946E-3,0
STARLINK-37478,2026-117Y,2026-06-15T22:00:01.999584,15.80869868,.00009313,53.1577,249.2628,82.8114,259.9585,0,U,69260,999,397,.38195044E-4,.6845E-4,0
STARLINK-37506,2026-117Z,2026-06-15T22:00:01.999584,15.80849477,.00009581,53.1574,249.2563,98.3295,247.2303,0,U,69261,999,397,.28984752E-3,.56822E-3,0
STARLINK-37503,2026-117AA,2026-06-15T22:00:01.999584,15.80870865,.00010714,53.1578,249.2529,85.2518,261.7729,0,U,69262,999,397,-.4383199E-4,-.9339E-4,0
STARLINK-37502,2026-117AB,2026-06-15T22:00:01.999584,15.80857888,.00013119,53.1578,249.2464,65.9514,284.0011,0,U,69263,999,397,.14235504E-3,.27467E-3,0
STARLINK-37486,2026-117AC,2026-06-15T22:00:01.999584,15.80848881,.00010621,53.1574,249.2322,100.4457,256.4526,0,U,69264,999,397,.23817114E-3,.46509E-3,0
STARLINK-37435,2026-117AD,2026-06-15T15:58:50.910528,15.80924205,.00008504,53.1575,250.5053,105.1426,254.9691,0,U,69265,999,274,.7095063E-3,.141994E-2,0
STARLINK-37464,2026-117AE,2026-06-15T17:24:57.087072,15.82045900,.00008459,53.1572,250.1647,94.9208,265.1912,0,U,69266,999,275,.64746126E-3,.136361E-2,0
KUIPER-00282,2026-118A,2026-06-15T22:04:02.876736,15.34508490,.00116278,51.8589,59.6718,177.2667,182.8384,0,U,69267,999,378,-.44932562E-3,-.15637E-3,0
KUIPER-00383,2026-118B,2026-06-15T23:33:36.340704,15.34517908,.00108015,51.8593,59.3405,180.1544,179.9440,0,U,69268,999,379,.16334789E-3,.5174E-4,0
KUIPER-00527,2026-118C,2026-06-15T23:27:23.720832,15.34973047,.000993,51.8621,59.3145,173.1205,186.9919,0,U,69269,999,379,.24162016E-3,.7958E-4,0
KUIPER-00562,2026-118D,2026-06-15T22:43:56.910144,15.38607306,.00017374,51.8734,59.1191,110.2924,249.8251,0,U,69270,999,379,.53319234E-3,.2031E-3,0
KUIPER-00570,2026-118E,2026-06-15T23:30:27.821952,15.34660447,.00119796,51.8579,59.3241,180.2273,179.8709,0,U,69271,999,379,-.10228141E-2,-.35188E-3,0
KUIPER-00572,2026-118F,2026-06-15T23:09:49.530240,15.36990778,.00071466,51.8686,59.2406,166.5656,193.5522,0,U,69272,999,379,.52110781E-3,.1882E-3,0
KUIPER-00581,2026-118G,2026-06-15T23:15:04.189536,15.36619999,.00088021,51.8665,59.2631,170.6179,189.4974,0,U,69273,999,388,.49700556E-3,.17719E-3,0
KUIPER-00584,2026-118H,2026-06-15T23:33:35.888832,15.34571112,.00116831,51.8607,59.3419,185.8092,174.2760,0,U,69274,999,379,.16012395E-3,.5075E-4,0
KUIPER-00587,2026-118J,2026-06-15T23:14:11.436288,15.36665722,.0008113,51.8638,59.2568,174.0061,186.1024,0,U,69275,999,379,.48379362E-3,.17259E-3,0
KUIPER-00590,2026-118K,2026-06-15T22:55:42.310848,15.37896910,.00039941,51.8699,59.1778,153.7540,206.3650,0,U,69276,999,379,.52460783E-3,.19514E-3,0
KUIPER-00592,2026-118L,2026-06-15T22:52:16.919040,15.38073840,.00035391,51.8722,59.1621,129.2075,230.9227,0,U,69277,999,379,.4672412E-3,.17433E-3,0
KUIPER-00593,2026-118M,2026-06-15T22:53:15.976896,15.38031231,.00038478,51.8724,59.1647,150.8412,209.2791,0,U,69278,999,385,.50868181E-3,.18992E-3,0
KUIPER-00594,2026-118N,2026-06-15T22:42:18.345888,15.38641356,.00009568,51.8730,59.1152,80.1294,279.9802,0,U,69279,999,379,.50808518E-3,.19354E-3,0
KUIPER-00595,2026-118P,2026-06-15T22:45:20.280960,15.38542313,.00017273,51.8719,59.1300,135.2905,224.8222,0,U,69280,999,382,.52684093E-3,.20019E-3,0
KUIPER-00596,2026-118Q,2026-06-15T23:31:35.302944,15.34676705,.00125449,51.8558,59.3273,180.7539,179.3429,0,U,69281,999,379,.20788774E-3,.673E-4,0
KUIPER-00597,2026-118R,2026-06-15T23:07:26.565024,15.37007345,.00068458,51.8665,59.2304,167.4407,192.6751,0,U,69282,999,379,.60877467E-3,.22072E-3,0
KUIPER-00599,2026-118S,2026-06-15T23:03:39.644064,15.37369846,.00061235,51.8703,59.2130,159.6144,200.5088,0,U,69283,999,379,.4935845E-3,.18023E-3,0
KUIPER-00600,2026-118T,2026-06-15T23:13:10.677216,15.36713365,.00086672,51.8651,59.2545,169.8516,190.2647,0,U,69284,999,379,.58518754E-3,.21005E-3,0
KUIPER-00601,2026-118U,2026-06-15T22:59:00.571200,15.37639093,.000469,51.8712,59.1913,149.5298,210.5962,0,U,69285,999,379,.50646499E-3,.18665E-3,0
KUIPER-00602,2026-118V,2026-06-15T22:51:08.498880,15.38164846,.00027176,51.8713,59.1576,139.0563,221.0628,0,U,69286,999,379,.52909385E-3,.19858E-3,0
